start=new Date('2023-05-11T00:00:00.000Z').valueOf();
sats=[{"FILE":"3904830","OBJECT_TYPE":"PAYLOAD","CENTER_NAME":"EARTH","COUNTRY_CODE":"US","APOAPSIS":"547.751","TLE_LINE1":"1 46340U 20062R   23130.84413991  .00028766  00000-0  19393-2 0  9991","RCS_SIZE":"LARGE","REF_FRAME":"TEME","OBJECT_ID":"2020-062R","MEAN_MOTION_DDOT":"0.0000000000000","GP_ID":"231563572","TIME_SYSTEM":"UTC","MEAN_MOTION_DOT":"0.00028766","NORAD_CAT_ID":"46340","CLASSIFICATION_TYPE":"U","RA_OF_ASC_NODE":"337.7379","SITE":"AFETR","MEAN_ELEMENT_THEORY":"SGP4","DECAY_DATE":null,"MEAN_ANOMALY":"263.1601","TLE_LINE2":"2 46340  53.0545 337.7379 0001023  96.9504 263.1601 15.06455662148472","REV_AT_EPOCH":"14847","PERIOD":"95.589","MEAN_MOTION":"15.06455662","BSTAR":"0.00193930000000","INCLINATION":"53.0545","PERIAPSIS":"546.335","SEMIMAJOR_AXIS":"6925.178","ECCENTRICITY":"0.00010230","OBJECT_NAME":"STARLINK-1759","ARG_OF_PERICENTER":"96.9504","ELEMENT_SET_NO":"999","EPOCH":"2023-05-10T20:15:33.688224","LAUNCH_DATE":"2020-09-03","EPHEMERIS_TYPE":"0"},{"RCS_SIZE":"LARGE","OBJECT_ID":"2020-062S","REF_FRAME":"TEME","GP_ID":"231564322","MEAN_MOTION_DDOT":"0.0000000000000","TIME_SYSTEM":"UTC","NORAD_CAT_ID":"46341","MEAN_MOTION_DOT":"0.00030328","RA_OF_ASC_NODE":"318.0018","CLASSIFICATION_TYPE":"U","FILE":"3904830","COUNTRY_CODE":"US","CENTER_NAME":"EARTH","OBJECT_TYPE":"PAYLOAD","TLE_LINE1":"1 46341U 20062S   23130.78331660  .00030328  00000-0  20429-2 0  9996","APOAPSIS":"547.679","PERIAPSIS":"546.379","ECCENTRICITY":"0.00009380","SEMIMAJOR_AXIS":"6925.164","OBJECT_NAME":"STARLINK-1760","ARG_OF_PERICENTER":"88.5994","ELEMENT_SET_NO":"999","EPOCH":"2023-05-10T18:47:58.554240","LAUNCH_DATE":"2020-09-03","EPHEMERIS_TYPE":"0","SITE":"AFETR","DECAY_DATE":null,"MEAN_ANOMALY":"271.5102","MEAN_ELEMENT_THEORY":"SGP4","REV_AT_EPOCH":"14876","TLE_LINE2":"2 46341  53.0531 318.0018 0000938  88.5994 271.5102 15.06460238148760","MEAN_MOTION":"15.06460238","PERIOD":"95.588","BSTAR":"0.00204290000000","INCLINATION":"53.0531"},{"MEAN_ELEMENT_THEORY":"SGP4","DECAY_DATE":null,"MEAN_ANOMALY":"267.5616","SITE":"AFETR","PERIOD":"95.590","MEAN_MOTION":"15.06436244","TLE_LINE2":"2 46342  53.0546 337.7983 0001062  92.5494 267.5616 15.06436244148489","REV_AT_EPOCH":"14848","INCLINATION":"53.0546","BSTAR":"0.00080692000000","PERIAPSIS":"546.367","ARG_OF_PERICENTER":"92.5494","OBJECT_NAME":"STARLINK-1762","SEMIMAJOR_AXIS":"6925.237","ECCENTRICITY":"0.00010620","EPOCH":"2023-05-10T19:54:19.511136","ELEMENT_SET_NO":"999","EPHEMERIS_TYPE":"0","LAUNCH_DATE":"2020-09-03","FILE":"3904830","APOAPSIS":"547.838","TLE_LINE1":"1 46342U 20062T   23130.82939249  .00011770  00000-0  80692-3 0  9998","OBJECT_TYPE":"PAYLOAD","CENTER_NAME":"EARTH","COUNTRY_CODE":"US","RCS_SIZE":"LARGE","MEAN_MOTION_DDOT":"0.0000000000000","GP_ID":"231564573","REF_FRAME":"TEME","OBJECT_ID":"2020-062T","MEAN_MOTION_DOT":"0.00011770","NORAD_CAT_ID":"46342","TIME_SYSTEM":"UTC","CLASSIFICATION_TYPE":"U","RA_OF_ASC_NODE":"337.7983"},{"CENTER_NAME":"EARTH","OBJECT_TYPE":"PAYLOAD","COUNTRY_CODE":"US","APOAPSIS":"547.819","TLE_LINE1":"1 46343U 20062U   23130.82386023  .00032438  00000-0  21835-2 0  9992","FILE":"3904830","CLASSIFICATION_TYPE":"U","RA_OF_ASC_NODE":"317.8211","TIME_SYSTEM":"UTC","MEAN_MOTION_DOT":"0.00032438","NORAD_CAT_ID":"46343","REF_FRAME":"TEME","OBJECT_ID":"2020-062U","MEAN_MOTION_DDOT":"0.0000000000000","GP_ID":"231563323","RCS_SIZE":"LARGE","BSTAR":"0.00218350000000","INCLINATION":"53.0544","TLE_LINE2":"2 46343  53.0544 317.8211 0001109  90.6301 269.4815 15.06452915148945","REV_AT_EPOCH":"14894","PERIOD":"95.589","MEAN_MOTION":"15.06452915","SITE":"AFETR","MEAN_ELEMENT_THEORY":"SGP4","DECAY_DATE":null,"MEAN_ANOMALY":"269.4815","LAUNCH_DATE":"2020-09-03","EPHEMERIS_TYPE":"0","ELEMENT_SET_NO":"999","EPOCH":"2023-05-10T19:46:21.523872","SEMIMAJOR_AXIS":"6925.186","ECCENTRICITY":"0.00011090","OBJECT_NAME":"STARLINK-1764","ARG_OF_PERICENTER":"90.6301","PERIAPSIS":"546.283"},{"MEAN_ANOMALY":"265.0192","DECAY_DATE":null,"MEAN_ELEMENT_THEORY":"SGP4","SITE":"AFETR","INCLINATION":"53.0529","BSTAR":"0.00159330000000","MEAN_MOTION":"15.06452869","PERIOD":"95.589","REV_AT_EPOCH":"14876","TLE_LINE2":"2 46344  53.0529 317.7401 0001195  95.0933 265.0192 15.06452869148762","ARG_OF_PERICENTER":"95.0933","SEMIMAJOR_AXIS":"6925.187","OBJECT_NAME":"STARLINK-1765","ECCENTRICITY":"0.00011950","PERIAPSIS":"546.224","EPHEMERIS_TYPE":"0","LAUNCH_DATE":"2020-09-03","EPOCH":"2023-05-10T20:12:53.967456","ELEMENT_SET_NO":"999","TLE_LINE1":"1 46344U 20062V   23130.84229129  .00023564  00000-0  15933-2 0  9990","APOAPSIS":"547.879","COUNTRY_CODE":"US","OBJECT_TYPE":"PAYLOAD","CENTER_NAME":"EARTH","FILE":"3904830","GP_ID":"231563072","MEAN_MOTION_DDOT":"0.0000000000000","OBJECT_ID":"2020-062V","REF_FRAME":"TEME","RCS_SIZE":"LARGE","RA_OF_ASC_NODE":"317.7401","CLASSIFICATION_TYPE":"U","NORAD_CAT_ID":"46344","MEAN_MOTION_DOT":"0.00023564","TIME_SYSTEM":"UTC"},{"RA_OF_ASC_NODE":"337.7234","CLASSIFICATION_TYPE":"U","TIME_SYSTEM":"UTC","NORAD_CAT_ID":"46345","MEAN_MOTION_DOT":"0.00028103","OBJECT_ID":"2020-062W","REF_FRAME":"TEME","GP_ID":"231563824","MEAN_MOTION_DDOT":"0.0000000000000","RCS_SIZE":"LARGE","COUNTRY_CODE":"US","OBJECT_TYPE":"PAYLOAD","CENTER_NAME":"EARTH","TLE_LINE1":"1 46345U 20062W   23130.84320140  .00028103  00000-0  18953-2 0  9995","APOAPSIS":"547.837","FILE":"3904830","LAUNCH_DATE":"2020-09-03","EPHEMERIS_TYPE":"0","ELEMENT_SET_NO":"999","EPOCH":"2023-05-10T20:14:12.600960","ECCENTRICITY":"0.00011380","SEMIMAJOR_AXIS":"6925.184","OBJECT_NAME":"STARLINK-1767","ARG_OF_PERICENTER":"65.0824","PERIAPSIS":"546.261","BSTAR":"0.00189530000000","INCLINATION":"53.0538","REV_AT_EPOCH":"14866","TLE_LINE2":"2 46345  53.0538 337.7234 0001138  65.0824 295.0283 15.06453777148664","MEAN_MOTION":"15.06453777","PERIOD":"95.589","SITE":"AFETR","MEAN_ANOMALY":"295.0283","DECAY_DATE":null,"MEAN_ELEMENT_THEORY":"SGP4"},{"LAUNCH_DATE":"2020-09-03","EPHEMERIS_TYPE":"0","ELEMENT_SET_NO":"999","EPOCH":"2023-05-10T22:00:00.999936","SEMIMAJOR_AXIS":"6714.699","OBJECT_NAME":"STARLINK-1546","ECCENTRICITY":"0.00012810","ARG_OF_PERICENTER":"130.7951","PERIAPSIS":"335.704","BSTAR":"0.00174910000000","INCLINATION":"53.0522","REV_AT_EPOCH":"130","TLE_LINE2":"2 46346  53.0522 107.2073 0001281 130.7951 233.6060 15.77839944  1301","MEAN_MOTION":"15.77839944","PERIOD":"91.264","SITE":"AFETR","DECAY_DATE":null,"MEAN_ANOMALY":"233.6060","MEAN_ELEMENT_THEORY":"SGP4","RA_OF_ASC_NODE":"107.2073","CLASSIFICATION_TYPE":"U","TIME_SYSTEM":"UTC","NORAD_CAT_ID":"46346","MEAN_MOTION_DOT":"0.00311384","OBJECT_ID":"2020-062X","REF_FRAME":"TEME","GP_ID":"231564074","MEAN_MOTION_DDOT":"0.0000000000000","RCS_SIZE":"LARGE","COUNTRY_CODE":"US","OBJECT_TYPE":"PAYLOAD","CENTER_NAME":"EARTH","TLE_LINE1":"1 46346U 20062X   23130.91667824  .00311384  00000-0  17491-2 0  9999","APOAPSIS":"337.424","FILE":"3904830"},{"RCS_SIZE":"LARGE","OBJECT_ID":"2020-062Y","REF_FRAME":"TEME","GP_ID":"231562823","MEAN_MOTION_DDOT":"0.0000000000000","TIME_SYSTEM":"UTC","NORAD_CAT_ID":"46347","MEAN_MOTION_DOT":"0.00031764","RA_OF_ASC_NODE":"293.2153","CLASSIFICATION_TYPE":"U","FILE":"3904830","COUNTRY_CODE":"US","OBJECT_TYPE":"PAYLOAD","CENTER_NAME":"EARTH","TLE_LINE1":"1 46347U 20062Y   23130.73586692  .00031764  00000-0  21422-2 0  9993","APOAPSIS":"547.748","PERIAPSIS":"546.727","SEMIMAJOR_AXIS":"6925.373","OBJECT_NAME":"STARLINK-1547","ECCENTRICITY":"0.00007370","ARG_OF_PERICENTER":"96.8753","ELEMENT_SET_NO":"999","EPOCH":"2023-05-10T17:39:38.901888","LAUNCH_DATE":"2020-09-03","EPHEMERIS_TYPE":"0","SITE":"AFETR","DECAY_DATE":null,"MEAN_ANOMALY":"263.2320","MEAN_ELEMENT_THEORY":"SGP4","REV_AT_EPOCH":"14908","TLE_LINE2":"2 46347  53.0541 293.2153 0000737  96.8753 263.2320 15.06392061149087","MEAN_MOTION":"15.06392061","PERIOD":"95.593","BSTAR":"0.00214220000000","INCLINATION":"53.0541"},{"MEAN_ELEMENT_THEORY":"SGP4","MEAN_ANOMALY":"272.0354","DECAY_DATE":null,"SITE":"AFETR","INCLINATION":"53.0539","BSTAR":"0.00090339000000","PERIOD":"95.590","MEAN_MOTION":"15.06438818","TLE_LINE2":"2 46348  53.0539 318.0213 0001096  88.0761 272.0354 15.06438818148938","REV_AT_EPOCH":"14893","ARG_OF_PERICENTER":"88.0761","SEMIMAJOR_AXIS":"6925.230","ECCENTRICITY":"0.00010960","OBJECT_NAME":"STARLINK-1553","PERIAPSIS":"546.336","EPHEMERIS_TYPE":"0","LAUNCH_DATE":"2020-09-03","EPOCH":"2023-05-10T18:42:40.133088","ELEMENT_SET_NO":"999","APOAPSIS":"547.854","TLE_LINE1":"1 46348U 20062Z   23130.77963117  .00013214  00000-0  90339-3 0  9993","OBJECT_TYPE":"PAYLOAD","CENTER_NAME":"EARTH","COUNTRY_CODE":"US","FILE":"3904760","MEAN_MOTION_DDOT":"0.0000000000000","GP_ID":"231542190","REF_FRAME":"TEME","OBJECT_ID":"2020-062Z","RCS_SIZE":"LARGE","CLASSIFICATION_TYPE":"U","RA_OF_ASC_NODE":"318.0213","MEAN_MOTION_DOT":"0.00013214","NORAD_CAT_ID":"46348","TIME_SYSTEM":"UTC"},{"TIME_SYSTEM":"UTC","NORAD_CAT_ID":"46349","MEAN_MOTION_DOT":"0.00034754","RA_OF_ASC_NODE":"293.0342","CLASSIFICATION_TYPE":"U","RCS_SIZE":"LARGE","OBJECT_ID":"2020-062AA","REF_FRAME":"TEME","GP_ID":"231564323","MEAN_MOTION_DDOT":"0.0000000000000","FILE":"3904830","COUNTRY_CODE":"US","OBJECT_TYPE":"PAYLOAD","CENTER_NAME":"EARTH","TLE_LINE1":"1 46349U 20062AA  23130.77640637  .00034754  00000-0  23419-2 0  9999","APOAPSIS":"548.112","ELEMENT_SET_NO":"999","EPOCH":"2023-05-10T18:38:01.510368","LAUNCH_DATE":"2020-09-03","EPHEMERIS_TYPE":"0","PERIAPSIS":"546.440","ECCENTRICITY":"0.00012070","SEMIMAJOR_AXIS":"6925.411","OBJECT_NAME":"STARLINK-1575","ARG_OF_PERICENTER":"53.5240","REV_AT_EPOCH":"14910","TLE_LINE2":"2 46349  53.0532 293.0342 0001207  53.5240 306.5860 15.06379689149105","MEAN_MOTION":"15.06379689","PERIOD":"95.593","BSTAR":"0.00234190000000","INCLINATION":"53.0532","SITE":"AFETR","DECAY_DATE":null,"MEAN_ANOMALY":"306.5860","MEAN_ELEMENT_THEORY":"SGP4"}];
